[{"OBJECT_NAME":"STARLINK-32864","OBJECT_ID":"2025-022J","EPOCH":"2026-03-09T10:40:42.832416","MEAN_MOTION":15.3019107,"ECCENTRICITY":0.00011983,"INCLINATION":53.1579,"RA_OF_ASC_NODE":130.6677,"ARG_OF_PERICENTER":89.2302,"MEAN_ANOMALY":270.8836,"EPHEMERIS_TYPE":0,"CLASSIFICATION_TYPE":"U","NORAD_CAT_ID":62862,"ELEMENT_SET_NO":999,"REV_AT_EPOCH":6186,"BSTAR":0.00069736046,"MEAN_MOTION_DOT":0.00020346,"MEAN_MOTION_DDOT":0},{"OBJECT_NAME":"CZ-4B DEB","OBJECT_ID":"2010-051E","EPOCH":"2026-03-08T22:01:50.125728","MEAN_MOTION":15.23766972,"ECCENTRICITY":0.00561086,"INCLINATION":97.769,"RA_OF_ASC_NODE":240.5013,"ARG_OF_PERICENTER":301.1291,"MEAN_ANOMALY":58.4449,"EPHEMERIS_TYPE":0,"CLASSIFICATION_TYPE":"U","NORAD_CAT_ID":38184,"ELEMENT_SET_NO":999,"REV_AT_EPOCH":82066,"BSTAR":0.0024566319,"MEAN_MOTION_DOT":0.00062123,"MEAN_MOTION_DDOT":0}]
